{"type":"Feature","properties":{"nom":"Marseille 7e Arrondissement","code":"13207","codesPostaux":["13007"],"codeParent":"13055"},"geometry":{"type":"MultiPolygon","coordinates":[[[[5.287766,43.26118],[5.287759,43.261124],[5.287536,43.261074],[5.287378,43.261087],[5.287292,43.261187],[5.287459,43.26122],[5.287766,43.26118]]],[[[5.294872,43.270585],[5.294971,43.270377],[5.294756,43.270423],[5.294753,43.270543],[5.294872,43.270585]]],[[[5.285848,43.266008],[5.285962,43.266002],[5.286141,43.266097],[5.286194,43.266182],[5.286645,43.266021],[5.286843,43.266106],[5.286895,43.266194],[5.287047,43.266235],[5.287142,43.266401],[5.287469,43.266474],[5.287664,43.266552],[5.287745,43.266434],[5.287959,43.266438],[5.288139,43.266522],[5.28826,43.266413],[5.288461,43.266452],[5.288493,43.266594],[5.288446,43.266723],[5.288619,43.266829],[5.288697,43.266802],[5.289018,43.26697],[5.289033,43.267113],[5.28919,43.267157],[5.289285,43.267338],[5.289557,43.26731],[5.289528,43.267226],[5.289705,43.267209],[5.289781,43.267079],[5.289984,43.267106],[5.290117,43.266998],[5.290214,43.267158],[5.29013,43.267368],[5.289868,43.267692],[5.28994,43.267743],[5.289995,43.267938],[5.289849,43.268016],[5.289689,43.268187],[5.289498,43.268232],[5.289348,43.268464],[5.289859,43.268617],[5.289989,43.26871],[5.290079,43.268631],[5.289963,43.268477],[5.290154,43.2683],[5.290008,43.268182],[5.290073,43.268082],[5.290499,43.267979],[5.29062,43.268027],[5.290735,43.267956],[5.290879,43.267982],[5.290998,43.268087],[5.29092,43.268176],[5.291046,43.268252],[5.291062,43.268341],[5.291316,43.268271],[5.291498,43.268271],[5.291576,43.268189],[5.291784,43.268187],[5.291707,43.268426],[5.291903,43.268726],[5.291937,43.268887],[5.292239,43.268846],[5.291972,43.268654],[5.291902,43.268491],[5.291989,43.268307],[5.292141,43.26821],[5.291879,43.268065],[5.291865,43.267874],[5.291995,43.267846],[5.292053,43.26768],[5.291968,43.267498],[5.292135,43.26739],[5.292318,43.267523],[5.292627,43.267434],[5.292657,43.267534],[5.292894,43.267663],[5.292947,43.267882],[5.292813,43.267899],[5.292669,43.26802],[5.292748,43.268183],[5.292759,43.268338],[5.293052,43.268384],[5.293132,43.268474],[5.293295,43.268912],[5.293423,43.268843],[5.293586,43.268609],[5.293562,43.268526],[5.293801,43.268428],[5.293877,43.268511],[5.293775,43.268643],[5.293858,43.268749],[5.29381,43.268961],[5.294075,43.26897],[5.294366,43.268864],[5.294578,43.268904],[5.294597,43.268991],[5.294512,43.269083],[5.295001,43.269012],[5.295109,43.269064],[5.295259,43.269048],[5.295383,43.268864],[5.295606,43.268959],[5.295422,43.269038],[5.295468,43.269198],[5.295382,43.269327],[5.295547,43.269481],[5.295419,43.269653],[5.295302,43.269669],[5.295361,43.269962],[5.295682,43.270001],[5.295765,43.269877],[5.295918,43.269849],[5.296194,43.269897],[5.296192,43.269772],[5.296452,43.269665],[5.296456,43.269909],[5.29634,43.269949],[5.296237,43.270079],[5.296269,43.270246],[5.296366,43.270261],[5.296307,43.270514],[5.296374,43.270564],[5.296524,43.270457],[5.296515,43.270223],[5.296743,43.27023],[5.296876,43.270107],[5.297371,43.270382],[5.29727,43.270436],[5.297037,43.270438],[5.297032,43.270594],[5.296718,43.270598],[5.296621,43.270683],[5.29665,43.270776],[5.29659,43.270967],[5.296806,43.270836],[5.297019,43.27081],[5.297269,43.27091],[5.297217,43.271123],[5.297118,43.271252],[5.29727,43.271306],[5.297371,43.27124],[5.297699,43.271383],[5.297633,43.271596],[5.297455,43.271687],[5.297313,43.271866],[5.297236,43.272032],[5.297355,43.272258],[5.297539,43.272089],[5.297614,43.271975],[5.297786,43.271991],[5.298046,43.271863],[5.298174,43.27189],[5.298264,43.271736],[5.298392,43.271766],[5.29853,43.271966],[5.298465,43.272097],[5.298218,43.272188],[5.298343,43.272269],[5.298368,43.272425],[5.298634,43.272259],[5.298808,43.272236],[5.29896,43.272362],[5.299091,43.272248],[5.299426,43.272253],[5.299372,43.272421],[5.299471,43.272504],[5.299772,43.272564],[5.299614,43.272691],[5.299551,43.272796],[5.299575,43.272934],[5.299712,43.273006],[5.299968,43.273035],[5.300115,43.273124],[5.300184,43.273064],[5.300409,43.273052],[5.300485,43.273008],[5.300638,43.273059],[5.300835,43.273015],[5.300908,43.273095],[5.300694,43.273293],[5.300424,43.273334],[5.300452,43.27342],[5.300386,43.273566],[5.30043,43.273695],[5.300336,43.273771],[5.300384,43.273851],[5.30025,43.273927],[5.300442,43.274156],[5.300514,43.27415],[5.300648,43.27385],[5.300889,43.273875],[5.301027,43.273739],[5.301067,43.27356],[5.301194,43.273479],[5.301307,43.273504],[5.301266,43.27363],[5.301376,43.273709],[5.301431,43.273851],[5.301341,43.273978],[5.301719,43.274146],[5.301685,43.274327],[5.30146,43.274416],[5.301377,43.274537],[5.301612,43.274562],[5.301756,43.274478],[5.302008,43.274482],[5.302128,43.274375],[5.302291,43.27446],[5.302401,43.274373],[5.302605,43.274424],[5.302433,43.274543],[5.302395,43.274653],[5.302162,43.274789],[5.302159,43.274885],[5.302317,43.275037],[5.302296,43.275097],[5.301949,43.275066],[5.301883,43.275122],[5.301687,43.275116],[5.301554,43.275173],[5.301514,43.27536],[5.301709,43.275387],[5.301928,43.275497],[5.301974,43.275576],[5.302196,43.275711],[5.302746,43.275693],[5.302909,43.275863],[5.302919,43.275981],[5.303092,43.276043],[5.303229,43.276041],[5.303317,43.275958],[5.303429,43.276001],[5.303585,43.276205],[5.303611,43.276546],[5.303523,43.276791],[5.303385,43.277343],[5.303377,43.277451],[5.3032,43.277968],[5.303194,43.278121],[5.302991,43.278908],[5.302836,43.27902],[5.30235,43.278978],[5.302151,43.279097],[5.302113,43.279251],[5.302534,43.279476],[5.302459,43.279586],[5.302571,43.279667],[5.30255,43.279752],[5.302825,43.279777],[5.303029,43.279878],[5.303039,43.279987],[5.303216,43.279902],[5.30336,43.279999],[5.303373,43.280133],[5.30314,43.280142],[5.302911,43.280203],[5.302723,43.280111],[5.302558,43.280173],[5.302311,43.280184],[5.302289,43.280254],[5.302097,43.280328],[5.302136,43.28009],[5.301809,43.280057],[5.301508,43.280049],[5.301413,43.279905],[5.301248,43.279831],[5.301241,43.279951],[5.300902,43.279678],[5.30065,43.279629],[5.300549,43.279513],[5.300385,43.279528],[5.300335,43.279438],[5.300529,43.279434],[5.300361,43.27905],[5.300074,43.278975],[5.299876,43.278876],[5.299736,43.278863],[5.299728,43.279111],[5.299825,43.27919],[5.299745,43.279299],[5.299625,43.279311],[5.299461,43.279193],[5.299078,43.279159],[5.298949,43.279002],[5.298781,43.278884],[5.298575,43.278836],[5.298491,43.278732],[5.298573,43.278586],[5.298415,43.278537],[5.298373,43.27844],[5.29799,43.278394],[5.297962,43.278502],[5.297618,43.278638],[5.297356,43.278592],[5.297143,43.278602],[5.297099,43.278701],[5.297206,43.278782],[5.297044,43.278876],[5.297054,43.278988],[5.297281,43.279113],[5.297227,43.279192],[5.296767,43.279153],[5.296611,43.279184],[5.296512,43.279115],[5.296372,43.279135],[5.296044,43.27911],[5.296042,43.279192],[5.295755,43.279228],[5.295679,43.279318],[5.29522,43.279149],[5.294933,43.279118],[5.294556,43.279116],[5.294327,43.279188],[5.294057,43.279169],[5.293824,43.279299],[5.293785,43.279483],[5.293579,43.279541],[5.29325,43.279344],[5.293081,43.27942],[5.29309,43.279574],[5.292955,43.279555],[5.292535,43.279706],[5.292748,43.279812],[5.292745,43.279963],[5.292657,43.280088],[5.292357,43.280092],[5.292087,43.280154],[5.291695,43.280183],[5.291719,43.280259],[5.291955,43.280273],[5.292063,43.28036],[5.292057,43.28046],[5.292268,43.280584],[5.292354,43.280703],[5.292692,43.28077],[5.292896,43.280934],[5.293116,43.281004],[5.293362,43.280974],[5.293527,43.281023],[5.293664,43.281159],[5.293862,43.281139],[5.29419,43.281241],[5.294307,43.281314],[5.294481,43.281345],[5.294876,43.281469],[5.294931,43.281458],[5.295337,43.281528],[5.295727,43.281539],[5.295877,43.28157],[5.2959,43.281478],[5.295713,43.281444],[5.295515,43.281333],[5.295335,43.281105],[5.295322,43.280959],[5.295222,43.280875],[5.295328,43.280809],[5.295545,43.280946],[5.295619,43.281042],[5.295791,43.280967],[5.295778,43.280822],[5.295933,43.280827],[5.295973,43.280743],[5.295917,43.280619],[5.296001,43.280554],[5.296324,43.280576],[5.29643,43.280672],[5.29649,43.280916],[5.296728,43.281044],[5.296843,43.281032],[5.296847,43.280919],[5.296997,43.280901],[5.297254,43.281013],[5.297393,43.280951],[5.297791,43.281106],[5.297894,43.281223],[5.297652,43.281256],[5.297462,43.2814],[5.297892,43.281785],[5.297969,43.281677],[5.298404,43.281812],[5.298508,43.281697],[5.29846,43.281601],[5.298648,43.281563],[5.298943,43.281387],[5.29912,43.281451],[5.299239,43.281577],[5.299536,43.281416],[5.299692,43.28151],[5.299757,43.281609],[5.299699,43.281839],[5.299895,43.281851],[5.300093,43.281817],[5.300253,43.281874],[5.300508,43.282083],[5.300623,43.282072],[5.300739,43.281928],[5.30091,43.281888],[5.3011,43.281755],[5.301174,43.281589],[5.301313,43.281762],[5.301507,43.281766],[5.301608,43.281843],[5.30166,43.281972],[5.301771,43.281971],[5.301998,43.282043],[5.30202,43.281853],[5.301902,43.281746],[5.301851,43.281543],[5.301719,43.281359],[5.30147,43.2811],[5.301538,43.281073],[5.30179,43.281118],[5.301851,43.281172],[5.302101,43.281218],[5.302289,43.281367],[5.302468,43.281463],[5.302586,43.281441],[5.302679,43.281304],[5.30281,43.281283],[5.303082,43.281358],[5.303196,43.281284],[5.303482,43.281289],[5.303592,43.281394],[5.303891,43.281331],[5.3042,43.281564],[5.304143,43.281673],[5.304172,43.281829],[5.30403,43.281917],[5.304099,43.282064],[5.304265,43.281914],[5.304473,43.281856],[5.304758,43.281901],[5.304956,43.281898],[5.305185,43.281847],[5.305238,43.281753],[5.305435,43.281772],[5.305622,43.281947],[5.305791,43.282041],[5.305798,43.282268],[5.305292,43.28239],[5.305177,43.282465],[5.305139,43.28263],[5.304922,43.282579],[5.30488,43.282661],[5.305075,43.28267],[5.305078,43.282742],[5.304659,43.282849],[5.304558,43.282784],[5.304262,43.282837],[5.304278,43.282911],[5.304183,43.283019],[5.304122,43.283203],[5.304004,43.283256],[5.30378,43.282954],[5.303637,43.283078],[5.303553,43.28303],[5.303316,43.282995],[5.30318,43.283069],[5.302902,43.283127],[5.302713,43.283067],[5.302717,43.283206],[5.302626,43.283328],[5.302699,43.283406],[5.302706,43.283569],[5.302662,43.283737],[5.302461,43.283588],[5.302394,43.283608],[5.302218,43.283363],[5.302,43.283321],[5.301985,43.283452],[5.301805,43.283556],[5.301671,43.283499],[5.301501,43.283657],[5.30128,43.283373],[5.300868,43.283511],[5.300732,43.283459],[5.300604,43.283508],[5.300565,43.283633],[5.300642,43.28383],[5.30064,43.283973],[5.300552,43.284063],[5.300179,43.284287],[5.30047,43.284381],[5.300979,43.284375],[5.301183,43.284317],[5.301469,43.28438],[5.301398,43.284574],[5.301231,43.284715],[5.301397,43.284741],[5.301575,43.284877],[5.30157,43.28494],[5.301427,43.285122],[5.301408,43.28523],[5.301603,43.285272],[5.30182,43.285199],[5.302043,43.285202],[5.302112,43.285298],[5.302347,43.285392],[5.302563,43.285191],[5.302667,43.285205],[5.302741,43.28532],[5.302862,43.285256],[5.302798,43.285152],[5.302855,43.285064],[5.302838,43.284855],[5.303208,43.285083],[5.303666,43.284908],[5.303689,43.284975],[5.303943,43.285077],[5.304087,43.284997],[5.304042,43.28487],[5.304128,43.284813],[5.304256,43.28489],[5.304414,43.284909],[5.304286,43.284699],[5.304435,43.284637],[5.304545,43.284528],[5.304488,43.284289],[5.3048,43.284382],[5.30513,43.284446],[5.305343,43.28435],[5.30563,43.284436],[5.305577,43.284623],[5.305645,43.284751],[5.305616,43.284881],[5.306001,43.284955],[5.306089,43.285037],[5.306114,43.285222],[5.30601,43.285302],[5.306313,43.285319],[5.306434,43.285357],[5.306603,43.285314],[5.306934,43.285341],[5.30705,43.285202],[5.307058,43.285105],[5.306967,43.284996],[5.307249,43.284661],[5.307225,43.284456],[5.307321,43.28445],[5.307655,43.284605],[5.307663,43.284837],[5.307531,43.284983],[5.307735,43.285083],[5.307859,43.285185],[5.307932,43.28534],[5.308129,43.285296],[5.308379,43.28517],[5.308493,43.285203],[5.308757,43.285093],[5.308648,43.284925],[5.309049,43.284941],[5.309144,43.28491],[5.309312,43.284711],[5.309446,43.284827],[5.309525,43.284965],[5.309646,43.285012],[5.309684,43.28511],[5.309841,43.285073],[5.309967,43.284954],[5.310189,43.284984],[5.310234,43.284897],[5.310397,43.284849],[5.310607,43.284876],[5.311097,43.284731],[5.311239,43.284664],[5.311156,43.284578],[5.311486,43.284313],[5.311633,43.28429],[5.311675,43.284388],[5.311899,43.284425],[5.31206,43.284498],[5.312079,43.284381],[5.312231,43.284215],[5.312318,43.284216],[5.312408,43.284375],[5.312606,43.284624],[5.312743,43.284739],[5.31275,43.284933],[5.312955,43.285014],[5.312907,43.284637],[5.312999,43.284514],[5.313196,43.284657],[5.313371,43.284644],[5.313527,43.284844],[5.313663,43.284825],[5.313706,43.284934],[5.314034,43.284992],[5.314204,43.284939],[5.314223,43.285067],[5.314092,43.285189],[5.313924,43.285217],[5.313972,43.285312],[5.313753,43.285335],[5.313821,43.285572],[5.313587,43.285485],[5.313408,43.285549],[5.313385,43.285703],[5.3131,43.285754],[5.31307,43.285838],[5.312775,43.285925],[5.31265,43.286245],[5.312738,43.286312],[5.312722,43.286506],[5.312842,43.286733],[5.312464,43.286857],[5.31241,43.287008],[5.312507,43.287241],[5.312753,43.287354],[5.312952,43.287266],[5.313032,43.287351],[5.313265,43.287373],[5.313337,43.287213],[5.313565,43.287205],[5.313558,43.287101],[5.313807,43.287023],[5.313907,43.286896],[5.314075,43.286895],[5.314203,43.286834],[5.314601,43.286892],[5.314866,43.286811],[5.315348,43.286858],[5.315562,43.286804],[5.315791,43.287025],[5.315934,43.286993],[5.31609,43.286892],[5.316446,43.286903],[5.31677,43.28696],[5.316903,43.286832],[5.316716,43.28663],[5.316666,43.286386],[5.316498,43.286313],[5.316508,43.286074],[5.316677,43.286055],[5.316875,43.285958],[5.31682,43.286143],[5.316862,43.286183],[5.317171,43.286183],[5.317292,43.28612],[5.317531,43.286265],[5.317726,43.28613],[5.317756,43.285983],[5.317595,43.285816],[5.317216,43.285804],[5.31705,43.285757],[5.316804,43.285605],[5.316702,43.285579],[5.316679,43.285446],[5.316785,43.285391],[5.316771,43.285284],[5.316961,43.285235],[5.31705,43.285117],[5.31721,43.285274],[5.317388,43.28531],[5.317466,43.285245],[5.317379,43.285098],[5.317486,43.285065],[5.317859,43.285048],[5.317965,43.285097],[5.318305,43.285085],[5.318356,43.28503],[5.318236,43.284925],[5.318356,43.284881],[5.318724,43.285001],[5.318777,43.284905],[5.318708,43.284779],[5.318784,43.284696],[5.318956,43.284616],[5.319021,43.284673],[5.318874,43.284872],[5.318994,43.284952],[5.319078,43.284918],[5.319253,43.284987],[5.319107,43.285129],[5.318964,43.285141],[5.318823,43.285492],[5.318703,43.285531],[5.318751,43.285677],[5.319248,43.286091],[5.319751,43.286027],[5.319785,43.286171],[5.319914,43.286172],[5.319988,43.286065],[5.320363,43.286066],[5.320546,43.285988],[5.320679,43.286053],[5.320671,43.286179],[5.320828,43.286155],[5.32076,43.286043],[5.320931,43.285947],[5.321038,43.286003],[5.320977,43.286101],[5.320988,43.286227],[5.321118,43.286268],[5.321549,43.28619],[5.321862,43.286293],[5.322143,43.2862],[5.322147,43.286327],[5.322417,43.286317],[5.322753,43.286207],[5.322849,43.286404],[5.323358,43.286558],[5.323411,43.28649],[5.323795,43.286429],[5.324002,43.286268],[5.323888,43.286041],[5.323733,43.285947],[5.323936,43.285885],[5.323855,43.285711],[5.323604,43.285499],[5.323488,43.285464],[5.323378,43.285357],[5.323115,43.285249],[5.322979,43.285161],[5.322623,43.285133],[5.322209,43.28522],[5.322011,43.285235],[5.32175,43.284989],[5.321419,43.285123],[5.321312,43.285082],[5.321074,43.285092],[5.321026,43.285011],[5.320663,43.284897],[5.320489,43.284797],[5.320361,43.284592],[5.320427,43.284532],[5.320454,43.284251],[5.320581,43.284238],[5.320753,43.283992],[5.320917,43.283969],[5.320904,43.284081],[5.320962,43.284209],[5.32116,43.284314],[5.321418,43.284193],[5.321347,43.284024],[5.321237,43.283939],[5.321152,43.284023],[5.320986,43.283934],[5.321027,43.283773],[5.320922,43.283719],[5.320752,43.283346],[5.320802,43.283281],[5.320655,43.28319],[5.320478,43.283004],[5.320124,43.282896],[5.31989,43.282728],[5.319651,43.282698],[5.319473,43.282616],[5.319277,43.282633],[5.318961,43.282584],[5.318902,43.282679],[5.318754,43.282691],[5.318607,43.282612],[5.318015,43.28285],[5.317837,43.282855],[5.317737,43.282915],[5.31771,43.283062],[5.31752,43.283391],[5.317396,43.283416],[5.317383,43.283504],[5.317139,43.28362],[5.317224,43.283788],[5.31696,43.283935],[5.316812,43.284192],[5.316817,43.284264],[5.316602,43.284285],[5.316459,43.284254],[5.316493,43.28417],[5.316348,43.284044],[5.316261,43.284222],[5.316121,43.284292],[5.315924,43.284289],[5.315728,43.284237],[5.315451,43.284057],[5.315426,43.283979],[5.315564,43.283801],[5.315683,43.283753],[5.315709,43.283543],[5.315784,43.283426],[5.315733,43.283254],[5.315896,43.283197],[5.315996,43.283087],[5.3161,43.282824],[5.31638,43.282755],[5.316487,43.282691],[5.316468,43.282574],[5.316577,43.282421],[5.316513,43.282308],[5.316321,43.282286],[5.316292,43.282099],[5.316104,43.281836],[5.316,43.281871],[5.315781,43.281844],[5.315605,43.281896],[5.315585,43.281744],[5.315721,43.281614],[5.315711,43.281432],[5.315464,43.28134],[5.315145,43.28107],[5.314979,43.281064],[5.314615,43.280687],[5.31437,43.280896],[5.313923,43.280898],[5.313717,43.280991],[5.313683,43.280883],[5.313709,43.280607],[5.31339,43.280216],[5.313185,43.280013],[5.313084,43.279962],[5.312966,43.279766],[5.312673,43.27952],[5.312272,43.279052],[5.312167,43.278892],[5.31177,43.278514],[5.311626,43.27831],[5.311368,43.278009],[5.311306,43.277993],[5.311126,43.277799],[5.310861,43.277354],[5.310706,43.277169],[5.310523,43.277218],[5.310625,43.277305],[5.310917,43.277821],[5.311048,43.278025],[5.311117,43.278195],[5.311216,43.278211],[5.311394,43.27836],[5.311397,43.278432],[5.311667,43.278705],[5.311835,43.278917],[5.312079,43.279164],[5.312167,43.279198],[5.312285,43.279385],[5.312763,43.279941],[5.313173,43.280338],[5.312922,43.280454],[5.312746,43.28043],[5.312567,43.280531],[5.312344,43.280594],[5.312195,43.280704],[5.312076,43.280915],[5.311962,43.280957],[5.311352,43.280989],[5.311273,43.280855],[5.311042,43.280932],[5.310953,43.28088],[5.310163,43.281149],[5.310216,43.281229],[5.309754,43.281392],[5.309688,43.281276],[5.309529,43.281297],[5.30947,43.281371],[5.309161,43.281409],[5.308896,43.281479],[5.30878,43.281455],[5.308668,43.281329],[5.308712,43.28121],[5.308939,43.281031],[5.309353,43.280896],[5.309327,43.280861],[5.308974,43.280976],[5.308922,43.280896],[5.308387,43.28107],[5.308136,43.280976],[5.307959,43.280845],[5.307825,43.280569],[5.30787,43.280469],[5.307707,43.280391],[5.307616,43.280276],[5.307365,43.280156],[5.307033,43.280181],[5.306892,43.28004],[5.306876,43.279941],[5.30697,43.27984],[5.306918,43.279657],[5.30645,43.279167],[5.306798,43.278917],[5.306709,43.278847],[5.306362,43.279106],[5.30626,43.279036],[5.305952,43.279034],[5.304915,43.278966],[5.30359,43.278787],[5.303551,43.278734],[5.303743,43.277983],[5.304127,43.276517],[5.30436,43.276442],[5.30466,43.276508],[5.305296,43.276582],[5.305611,43.276648],[5.306593,43.276815],[5.30712,43.276854],[5.307457,43.276914],[5.307982,43.276952],[5.308209,43.276919],[5.308612,43.2767],[5.309107,43.276539],[5.309303,43.276539],[5.309411,43.276581],[5.30942,43.276788],[5.309766,43.276708],[5.309906,43.276527],[5.310109,43.276465],[5.310198,43.276384],[5.310354,43.276351],[5.310725,43.276381],[5.310848,43.27632],[5.310996,43.276154],[5.311194,43.276008],[5.311587,43.275916],[5.311652,43.275939],[5.311899,43.275866],[5.311973,43.27577],[5.311819,43.275553],[5.3115,43.275463],[5.311203,43.275564],[5.311151,43.2754],[5.311164,43.275289],[5.311261,43.275117],[5.311168,43.274964],[5.311157,43.274801],[5.311264,43.274625],[5.311116,43.274529],[5.310829,43.274272],[5.310494,43.274168],[5.310189,43.274171],[5.310004,43.274082],[5.310066,43.273879],[5.309866,43.27371],[5.309577,43.273833],[5.309498,43.273755],[5.309201,43.273631],[5.309189,43.273465],[5.308927,43.273481],[5.308717,43.273455],[5.308712,43.273321],[5.308584,43.273259],[5.308606,43.273131],[5.308524,43.272965],[5.308346,43.272951],[5.308226,43.272894],[5.308133,43.273108],[5.307939,43.273291],[5.307775,43.273364],[5.30742,43.27338],[5.307076,43.27352],[5.307048,43.273376],[5.306838,43.273262],[5.306442,43.273137],[5.306409,43.273024],[5.306217,43.272894],[5.306112,43.272909],[5.305913,43.273048],[5.305734,43.273071],[5.30566,43.273172],[5.305335,43.273114],[5.30525,43.272973],[5.305116,43.272859],[5.305021,43.272649],[5.305088,43.272541],[5.305221,43.272451],[5.305157,43.27239],[5.305227,43.272276],[5.304942,43.272237],[5.304593,43.27266],[5.304643,43.272768],[5.304492,43.272902],[5.304506,43.273041],[5.304235,43.272972],[5.304056,43.273159],[5.303859,43.273099],[5.303881,43.272958],[5.303635,43.272964],[5.303618,43.272821],[5.30372,43.272642],[5.303617,43.272561],[5.303352,43.27261],[5.303197,43.2725],[5.303174,43.272319],[5.303283,43.272113],[5.303183,43.271985],[5.303227,43.271837],[5.303325,43.271693],[5.30296,43.271742],[5.302749,43.271996],[5.302574,43.272016],[5.302407,43.272172],[5.302182,43.272299],[5.302064,43.272148],[5.301797,43.272217],[5.301575,43.272211],[5.301416,43.272144],[5.301688,43.272049],[5.301505,43.27184],[5.301477,43.271655],[5.301355,43.271583],[5.30111,43.271574],[5.301069,43.271389],[5.301299,43.271282],[5.301243,43.271191],[5.301018,43.271217],[5.300688,43.271201],[5.300726,43.270994],[5.300494,43.270823],[5.300761,43.270701],[5.300576,43.270551],[5.300593,43.270361],[5.300529,43.27024],[5.300301,43.270283],[5.300248,43.270199],[5.299885,43.270206],[5.299551,43.270153],[5.299374,43.270049],[5.299468,43.26993],[5.299507,43.269565],[5.299628,43.269647],[5.299843,43.269579],[5.299856,43.269323],[5.299911,43.269272],[5.300141,43.269321],[5.300389,43.269275],[5.300586,43.269444],[5.301002,43.269492],[5.301239,43.269577],[5.301245,43.269721],[5.301757,43.270024],[5.30204,43.269991],[5.302117,43.270067],[5.302083,43.270261],[5.302265,43.270349],[5.302442,43.270329],[5.302596,43.270087],[5.302841,43.269938],[5.302982,43.269998],[5.303157,43.269985],[5.303307,43.270061],[5.303443,43.270043],[5.303203,43.269804],[5.303001,43.26974],[5.302655,43.269718],[5.302515,43.269603],[5.302345,43.269803],[5.301969,43.269842],[5.301805,43.269772],[5.301774,43.269667],[5.30162,43.269674],[5.30142,43.269789],[5.30127,43.269721],[5.301276,43.269567],[5.301026,43.269474],[5.301095,43.269164],[5.300805,43.268998],[5.300663,43.268967],[5.300496,43.268859],[5.300525,43.26875],[5.300382,43.268667],[5.30019,43.268502],[5.300054,43.268319],[5.299864,43.268221],[5.299955,43.268069],[5.299908,43.267811],[5.299696,43.267767],[5.299479,43.267902],[5.299495,43.267977],[5.2991,43.268191],[5.298689,43.268255],[5.298663,43.268192],[5.298783,43.268011],[5.298792,43.267893],[5.298643,43.267798],[5.298679,43.267663],[5.298897,43.267622],[5.299052,43.267533],[5.298939,43.267387],[5.299083,43.267163],[5.298904,43.266883],[5.298824,43.266962],[5.298678,43.266994],[5.298514,43.267173],[5.298492,43.267283],[5.298345,43.267376],[5.298236,43.267334],[5.298086,43.26736],[5.297756,43.267591],[5.297755,43.26769],[5.297522,43.267584],[5.297532,43.267468],[5.297359,43.267361],[5.297297,43.26724],[5.29719,43.267169],[5.297252,43.266965],[5.29714,43.266886],[5.296763,43.267024],[5.29659,43.267183],[5.296405,43.26714],[5.29642,43.266994],[5.296166,43.266886],[5.296269,43.266639],[5.29617,43.266553],[5.296256,43.266456],[5.296247,43.266354],[5.29607,43.266404],[5.295758,43.266298],[5.295579,43.266292],[5.29559,43.266163],[5.29575,43.265954],[5.29577,43.265774],[5.295728,43.265695],[5.295791,43.265531],[5.295942,43.265439],[5.295827,43.265361],[5.295665,43.265399],[5.295539,43.265564],[5.295248,43.265553],[5.295008,43.265347],[5.294748,43.265492],[5.294637,43.265517],[5.294597,43.26539],[5.29444,43.265384],[5.294353,43.265455],[5.294109,43.265299],[5.294098,43.265219],[5.294315,43.265034],[5.294271,43.264945],[5.294114,43.264845],[5.294098,43.264575],[5.293911,43.264489],[5.293705,43.264509],[5.293572,43.264581],[5.293657,43.264719],[5.293398,43.264835],[5.293065,43.264847],[5.292976,43.264651],[5.292654,43.264702],[5.292445,43.264655],[5.292196,43.264767],[5.291996,43.26467],[5.292176,43.264536],[5.291975,43.264417],[5.291963,43.264343],[5.292093,43.264275],[5.292175,43.264109],[5.292355,43.26396],[5.292309,43.263836],[5.292483,43.263647],[5.29258,43.263656],[5.292595,43.263516],[5.29213,43.263464],[5.291958,43.263414],[5.291741,43.263426],[5.291858,43.26329],[5.291786,43.263178],[5.291906,43.263102],[5.291925,43.262967],[5.291726,43.262835],[5.291765,43.262522],[5.291425,43.262489],[5.291376,43.262604],[5.291105,43.26265],[5.291008,43.262738],[5.290906,43.262544],[5.290906,43.262359],[5.290958,43.262192],[5.290912,43.262147],[5.290462,43.262169],[5.290395,43.262242],[5.290231,43.262281],[5.289994,43.262384],[5.290145,43.262575],[5.289857,43.26255],[5.289826,43.262456],[5.289635,43.262561],[5.289618,43.262419],[5.289787,43.262401],[5.289845,43.262317],[5.289663,43.262198],[5.289766,43.262113],[5.289837,43.261945],[5.289802,43.261887],[5.289959,43.261672],[5.28984,43.261592],[5.289998,43.26142],[5.29029,43.261331],[5.290355,43.261282],[5.290108,43.261112],[5.290086,43.261018],[5.290188,43.260971],[5.290218,43.260847],[5.289969,43.26079],[5.289718,43.26068],[5.289565,43.260551],[5.289263,43.26045],[5.289149,43.260474],[5.289185,43.260599],[5.289298,43.260712],[5.289267,43.260842],[5.289116,43.261072],[5.28912,43.261142],[5.28893,43.261242],[5.288532,43.26134],[5.288402,43.261332],[5.288187,43.26125],[5.288082,43.261254],[5.288131,43.261431],[5.288062,43.261493],[5.288122,43.261645],[5.287921,43.261804],[5.287542,43.26189],[5.287408,43.261977],[5.287201,43.262293],[5.287359,43.262347],[5.287279,43.262429],[5.287509,43.262722],[5.287624,43.262747],[5.28789,43.262704],[5.287966,43.262834],[5.288088,43.262837],[5.288296,43.263047],[5.288133,43.263118],[5.288295,43.263333],[5.287859,43.263257],[5.287656,43.263461],[5.287402,43.263622],[5.287233,43.263786],[5.287596,43.263837],[5.287591,43.263929],[5.287448,43.263931],[5.287298,43.264013],[5.287144,43.263959],[5.287022,43.264011],[5.287134,43.264114],[5.286845,43.264258],[5.28676,43.264354],[5.286614,43.264229],[5.286543,43.26425],[5.286286,43.264189],[5.286173,43.264224],[5.286186,43.264375],[5.286334,43.264528],[5.286325,43.264649],[5.286145,43.264758],[5.286173,43.264894],[5.28613,43.264985],[5.285981,43.265051],[5.286155,43.265211],[5.286028,43.265432],[5.285845,43.265629],[5.285796,43.265732],[5.28578,43.265968],[5.285848,43.266008]]],[[[5.285808,43.279477],[5.285997,43.279613],[5.286005,43.279704],[5.286165,43.279873],[5.286367,43.279843],[5.286479,43.279714],[5.286711,43.279614],[5.287078,43.279689],[5.287241,43.279797],[5.287385,43.279826],[5.287512,43.279942],[5.287569,43.279789],[5.287703,43.279766],[5.287464,43.279433],[5.28732,43.279287],[5.287101,43.279286],[5.28691,43.279244],[5.286752,43.27914],[5.286659,43.279189],[5.286465,43.27914],[5.286305,43.27906],[5.286131,43.278896],[5.286025,43.278846],[5.285796,43.27908],[5.285827,43.279176],[5.28553,43.279388],[5.285808,43.279477]]],[[[5.307988,43.280043],[5.308158,43.279986],[5.30804,43.279799],[5.307903,43.279757],[5.307749,43.279617],[5.307508,43.279739],[5.307373,43.27976],[5.307383,43.280002],[5.30746,43.280073],[5.307711,43.280193],[5.308014,43.280079],[5.307988,43.280043]]],[[[5.299747,43.282118],[5.299858,43.282036],[5.29977,43.281935],[5.299618,43.282037],[5.299747,43.282118]]],[[[5.292764,43.28237],[5.29282,43.282227],[5.292698,43.282167],[5.292593,43.282217],[5.292764,43.28237]]],[[[5.297598,43.282236],[5.297694,43.282376],[5.29792,43.282211],[5.297598,43.282236]]],[[[5.297529,43.282696],[5.297609,43.282752],[5.297776,43.282732],[5.297638,43.282425],[5.297507,43.282473],[5.297405,43.282635],[5.297529,43.282696]]],[[[5.343766,43.277428],[5.343797,43.27755],[5.343981,43.277723],[5.344169,43.277833],[5.344391,43.277822],[5.344554,43.277875],[5.344676,43.27776],[5.344525,43.277682],[5.344358,43.277371],[5.344133,43.277229],[5.343928,43.277263],[5.343735,43.277225],[5.343682,43.277377],[5.343766,43.277428]]],[[[5.344233,43.279744],[5.344311,43.279716],[5.344681,43.279842],[5.344833,43.279692],[5.344804,43.279615],[5.34507,43.27949],[5.345022,43.279413],[5.344874,43.27936],[5.344978,43.279226],[5.345108,43.279181],[5.345089,43.279093],[5.344966,43.279013],[5.344751,43.279006],[5.345045,43.278803],[5.344854,43.278613],[5.344667,43.278652],[5.344516,43.278937],[5.344505,43.27909],[5.3442,43.279193],[5.344195,43.27932],[5.344364,43.279392],[5.344154,43.279637],[5.344233,43.279744]]],[[[5.324504,43.280406],[5.324644,43.28045],[5.324865,43.28044],[5.324906,43.280486],[5.325248,43.280539],[5.325469,43.280459],[5.325552,43.280499],[5.325738,43.280452],[5.325763,43.280386],[5.326013,43.280358],[5.326002,43.280306],[5.326213,43.28022],[5.326355,43.280379],[5.326543,43.280464],[5.326714,43.280416],[5.32673,43.280243],[5.326986,43.280234],[5.327153,43.280294],[5.327587,43.280388],[5.327808,43.280079],[5.327557,43.279894],[5.327513,43.279734],[5.327365,43.279613],[5.327186,43.279609],[5.327072,43.279703],[5.326923,43.279684],[5.326802,43.27955],[5.326871,43.27944],[5.326787,43.279261],[5.326627,43.279419],[5.326464,43.279435],[5.326248,43.279386],[5.326248,43.279469],[5.326022,43.279449],[5.325854,43.279255],[5.325741,43.279213],[5.325595,43.279243],[5.325452,43.279119],[5.325326,43.279072],[5.324807,43.279017],[5.324688,43.279073],[5.324431,43.27903],[5.324484,43.27918],[5.324384,43.279447],[5.324423,43.279598],[5.324619,43.279746],[5.324643,43.279824],[5.324445,43.280083],[5.324471,43.28021],[5.324411,43.280309],[5.324504,43.280406]]],[[[5.373817,43.279195],[5.37386,43.279034],[5.374371,43.278426],[5.374454,43.278251],[5.374614,43.278097],[5.37453,43.278008],[5.374486,43.277475],[5.374354,43.277305],[5.374132,43.277237],[5.373029,43.277046],[5.372922,43.277003],[5.373013,43.276804],[5.373029,43.276472],[5.372954,43.276251],[5.372809,43.276072],[5.37271,43.275729],[5.372641,43.275244],[5.372696,43.274986],[5.372663,43.274667],[5.372796,43.274045],[5.372826,43.273639],[5.3727,43.273388],[5.37271,43.273295],[5.372662,43.272122],[5.372581,43.271853],[5.372435,43.271479],[5.372244,43.270667],[5.372234,43.270577],[5.372321,43.270185],[5.372521,43.269774],[5.372588,43.269692],[5.372544,43.269538],[5.372595,43.269051],[5.37254,43.268615],[5.372592,43.268542],[5.372578,43.2684],[5.372615,43.26782],[5.372145,43.267722],[5.371951,43.267634],[5.371734,43.26784],[5.371096,43.268344],[5.370834,43.268486],[5.370388,43.268661],[5.369552,43.268909],[5.369269,43.268917],[5.368712,43.268861],[5.368503,43.268867],[5.368443,43.268419],[5.368167,43.268319],[5.368019,43.268314],[5.368005,43.268809],[5.367856,43.268885],[5.367664,43.268865],[5.367611,43.268976],[5.36736,43.268956],[5.367364,43.269073],[5.367179,43.269167],[5.366999,43.269195],[5.366843,43.269107],[5.366373,43.269064],[5.366241,43.269199],[5.366368,43.269355],[5.366199,43.269489],[5.365936,43.269622],[5.365894,43.269837],[5.365713,43.26981],[5.365492,43.269953],[5.365247,43.269974],[5.365089,43.270034],[5.364673,43.270106],[5.364507,43.270078],[5.364311,43.270163],[5.36392,43.270142],[5.363639,43.270314],[5.363448,43.270365],[5.363293,43.270361],[5.363133,43.270463],[5.363072,43.27069],[5.36287,43.270875],[5.362765,43.271021],[5.362664,43.271266],[5.362609,43.271735],[5.362471,43.272269],[5.362343,43.272434],[5.362365,43.272686],[5.362298,43.272821],[5.362102,43.27287],[5.361821,43.272823],[5.361728,43.272771],[5.361558,43.27282],[5.361441,43.272985],[5.361205,43.273224],[5.361484,43.273248],[5.361791,43.273324],[5.362033,43.273444],[5.362242,43.273597],[5.36208,43.273835],[5.361878,43.274019],[5.361978,43.274071],[5.361884,43.274172],[5.361618,43.274295],[5.361178,43.274376],[5.360898,43.274455],[5.360483,43.274536],[5.360337,43.274593],[5.360212,43.274551],[5.359727,43.274732],[5.35995,43.27506],[5.359943,43.275186],[5.359789,43.275334],[5.359385,43.275351],[5.359333,43.275406],[5.359094,43.275315],[5.3589,43.275377],[5.358844,43.275484],[5.358939,43.275631],[5.358298,43.27623],[5.357775,43.27645],[5.357537,43.276589],[5.357278,43.276614],[5.357189,43.276679],[5.357164,43.276804],[5.356792,43.277055],[5.356608,43.277047],[5.356412,43.277191],[5.356353,43.27729],[5.356133,43.277347],[5.355814,43.277535],[5.355458,43.277567],[5.355327,43.277628],[5.355089,43.277893],[5.354803,43.278115],[5.354583,43.278221],[5.354405,43.278409],[5.354215,43.278503],[5.354208,43.278727],[5.354146,43.278769],[5.353926,43.278759],[5.353904,43.278672],[5.353759,43.278581],[5.353282,43.278811],[5.353138,43.278961],[5.353188,43.279137],[5.353159,43.279359],[5.353249,43.2794],[5.353498,43.279815],[5.353366,43.279896],[5.353452,43.280113],[5.353204,43.280292],[5.353162,43.280412],[5.352845,43.280517],[5.35273,43.280475],[5.35267,43.280248],[5.352687,43.280117],[5.352561,43.279891],[5.352351,43.279812],[5.352124,43.279804],[5.352042,43.279881],[5.351782,43.279899],[5.35169,43.279839],[5.351438,43.279878],[5.351336,43.279996],[5.351305,43.280225],[5.351125,43.280346],[5.351057,43.280204],[5.350885,43.280217],[5.350697,43.280419],[5.35037,43.280561],[5.350198,43.280565],[5.350104,43.280378],[5.35031,43.280035],[5.350385,43.279815],[5.350225,43.279754],[5.34998,43.279842],[5.349937,43.279909],[5.350027,43.280088],[5.350032,43.280218],[5.349928,43.2803],[5.349757,43.280283],[5.349793,43.280111],[5.349624,43.279948],[5.349343,43.279905],[5.349277,43.279974],[5.349316,43.28028],[5.349137,43.280345],[5.348988,43.280501],[5.348734,43.280308],[5.348634,43.28014],[5.348493,43.280127],[5.348353,43.280252],[5.348364,43.280315],[5.348185,43.28042],[5.348022,43.280288],[5.347727,43.280395],[5.347545,43.28037],[5.34732,43.280603],[5.347312,43.280798],[5.34689,43.281005],[5.346604,43.280853],[5.346563,43.280993],[5.346382,43.281098],[5.345977,43.28112],[5.345932,43.281257],[5.346155,43.281277],[5.346214,43.281456],[5.346086,43.281629],[5.345914,43.281612],[5.345865,43.28197],[5.345768,43.282109],[5.345844,43.282293],[5.345703,43.282443],[5.345874,43.282472],[5.345965,43.2826],[5.346186,43.282582],[5.346287,43.282635],[5.346508,43.282535],[5.346613,43.282676],[5.346491,43.282715],[5.346607,43.282847],[5.346862,43.283049],[5.347136,43.283133],[5.347065,43.282891],[5.347518,43.282837],[5.347576,43.282736],[5.347883,43.282721],[5.347986,43.282826],[5.34813,43.282733],[5.348066,43.282672],[5.348084,43.282509],[5.348263,43.28237],[5.348529,43.282248],[5.348608,43.282363],[5.348442,43.282529],[5.348317,43.282774],[5.348322,43.28305],[5.348401,43.283304],[5.348626,43.283448],[5.34881,43.283491],[5.348826,43.283566],[5.349167,43.283801],[5.349374,43.283779],[5.349431,43.283831],[5.349253,43.283926],[5.34926,43.284005],[5.349391,43.284056],[5.349367,43.284577],[5.349516,43.284701],[5.349334,43.284759],[5.349346,43.284945],[5.349421,43.285062],[5.349386,43.285136],[5.349145,43.285276],[5.348848,43.285535],[5.348768,43.28568],[5.348783,43.285761],[5.34908,43.285476],[5.349294,43.2853],[5.349463,43.285206],[5.349639,43.285263],[5.349797,43.285244],[5.349727,43.285048],[5.349501,43.284926],[5.349621,43.284852],[5.349847,43.284964],[5.349987,43.285069],[5.350002,43.28515],[5.350344,43.285358],[5.350464,43.285283],[5.350906,43.285247],[5.351163,43.285205],[5.351215,43.285276],[5.351362,43.285264],[5.351393,43.285416],[5.351311,43.285508],[5.350732,43.285512],[5.350022,43.285635],[5.349695,43.285735],[5.349312,43.285741],[5.349514,43.285851],[5.349697,43.285887],[5.34981,43.285989],[5.350058,43.286116],[5.350106,43.286213],[5.350288,43.286192],[5.350516,43.286263],[5.350811,43.286239],[5.351138,43.286421],[5.35123,43.286543],[5.351152,43.286682],[5.35136,43.286731],[5.351427,43.286855],[5.351593,43.287005],[5.351648,43.287139],[5.351823,43.287218],[5.351951,43.28743],[5.351939,43.287497],[5.352025,43.287795],[5.352008,43.287932],[5.352339,43.288165],[5.35249,43.288328],[5.352661,43.288424],[5.35282,43.288418],[5.352941,43.288622],[5.353127,43.288663],[5.353199,43.288608],[5.353435,43.288666],[5.353574,43.288744],[5.353626,43.288869],[5.353918,43.288961],[5.354031,43.289132],[5.354263,43.289146],[5.35432,43.289222],[5.354797,43.289428],[5.354712,43.289763],[5.354735,43.290023],[5.354792,43.290211],[5.354856,43.290264],[5.355063,43.290223],[5.355167,43.290439],[5.35521,43.290672],[5.355209,43.290921],[5.355138,43.291139],[5.354867,43.291145],[5.354539,43.291269],[5.354591,43.291331],[5.354412,43.29147],[5.354266,43.291527],[5.353881,43.291446],[5.353709,43.29145],[5.353633,43.291397],[5.353492,43.291591],[5.353562,43.291674],[5.353646,43.291938],[5.353591,43.29204],[5.353389,43.292209],[5.353683,43.29229],[5.353427,43.292483],[5.353504,43.292611],[5.353473,43.292791],[5.353676,43.292967],[5.353714,43.293149],[5.353783,43.293253],[5.354112,43.293508],[5.354228,43.293553],[5.354388,43.293768],[5.354405,43.293918],[5.354344,43.293975],[5.35435,43.294145],[5.354476,43.294175],[5.354469,43.294278],[5.354374,43.294481],[5.354202,43.294546],[5.354234,43.294616],[5.354398,43.294623],[5.354789,43.29484],[5.35494,43.294812],[5.355056,43.29486],[5.355109,43.295029],[5.3552,43.295066],[5.355419,43.295003],[5.355401,43.295175],[5.355504,43.295289],[5.355702,43.295312],[5.355948,43.295289],[5.356054,43.295169],[5.355839,43.295039],[5.355775,43.294365],[5.356226,43.294266],[5.356262,43.29422],[5.356841,43.294225],[5.357143,43.294381],[5.357258,43.294568],[5.357285,43.2947],[5.357697,43.295071],[5.357859,43.295178],[5.358084,43.295138],[5.358575,43.295003],[5.358878,43.294832],[5.359104,43.294786],[5.359261,43.294574],[5.359491,43.294432],[5.359583,43.294287],[5.359722,43.294189],[5.360129,43.29418],[5.360277,43.294204],[5.360573,43.294198],[5.36067,43.294169],[5.361039,43.294152],[5.361257,43.294048],[5.36026,43.294088],[5.360238,43.293836],[5.360312,43.293834],[5.361039,43.293234],[5.361288,43.293012],[5.361438,43.292757],[5.361825,43.292874],[5.361904,43.293017],[5.361846,43.29309],[5.362046,43.293176],[5.361952,43.293277],[5.362156,43.293749],[5.361543,43.293808],[5.361571,43.293906],[5.362062,43.29385],[5.362827,43.293878],[5.363013,43.29391],[5.363053,43.293685],[5.363262,43.293671],[5.363301,43.293418],[5.363421,43.293344],[5.363568,43.293322],[5.363562,43.293475],[5.363932,43.293476],[5.364006,43.292899],[5.364438,43.292916],[5.364694,43.292848],[5.364814,43.292764],[5.364943,43.292599],[5.365081,43.292074],[5.364599,43.292022],[5.364498,43.291961],[5.364177,43.291356],[5.36422,43.291202],[5.364391,43.291153],[5.365034,43.29122],[5.365296,43.291296],[5.365459,43.291373],[5.365576,43.291523],[5.365569,43.29165],[5.365354,43.292104],[5.365205,43.29209],[5.3651,43.292515],[5.365967,43.29264],[5.366085,43.29252],[5.366445,43.292584],[5.368715,43.292958],[5.369807,43.293141],[5.371079,43.293446],[5.371183,43.293141],[5.371812,43.29169],[5.372142,43.290965],[5.372044,43.290906],[5.372011,43.290788],[5.372071,43.29072],[5.371805,43.290437],[5.371624,43.290075],[5.371572,43.289911],[5.371573,43.289568],[5.371486,43.289626],[5.371182,43.289668],[5.370953,43.28917],[5.37051,43.288599],[5.370365,43.288352],[5.370141,43.287867],[5.370059,43.287524],[5.370019,43.287113],[5.370027,43.28675],[5.370119,43.286354],[5.370685,43.285222],[5.37081,43.285059],[5.370612,43.285038],[5.370686,43.284934],[5.371124,43.284509],[5.370715,43.284414],[5.370415,43.284091],[5.370329,43.28386],[5.370878,43.283772],[5.371033,43.283669],[5.371362,43.283381],[5.371305,43.283013],[5.37152,43.282863],[5.371816,43.28219],[5.371679,43.282149],[5.372155,43.281333],[5.372447,43.281102],[5.372153,43.280418],[5.372267,43.280378],[5.372866,43.280518],[5.372889,43.280437],[5.372832,43.280035],[5.372939,43.279845],[5.372852,43.279809],[5.372933,43.279618],[5.373113,43.279426],[5.373285,43.279326],[5.373817,43.279195]]],[[[5.321342,43.283914],[5.321519,43.284046],[5.321814,43.28407],[5.321863,43.283901],[5.321773,43.283819],[5.321514,43.283752],[5.321303,43.283768],[5.321342,43.283914]]],[[[5.347273,43.283636],[5.347383,43.283556],[5.347233,43.283498],[5.347153,43.283596],[5.347273,43.283636]]],[[[5.346628,43.283566],[5.346808,43.283666],[5.346853,43.283593],[5.346628,43.283566]]],[[[5.346395,43.283793],[5.346699,43.284029],[5.346864,43.283938],[5.346881,43.283819],[5.346486,43.283609],[5.346327,43.283677],[5.346395,43.283793]]],[[[5.345993,43.291365],[5.346441,43.291167],[5.34667,43.291036],[5.347106,43.290864],[5.347346,43.290706],[5.347612,43.290574],[5.347758,43.290535],[5.34795,43.290405],[5.348349,43.290234],[5.348881,43.28998],[5.349098,43.289849],[5.349618,43.289622],[5.350197,43.289312],[5.350368,43.289272],[5.350215,43.289159],[5.349922,43.289219],[5.349547,43.289389],[5.349379,43.289501],[5.348497,43.289916],[5.348207,43.290075],[5.347228,43.290529],[5.347281,43.290626],[5.346981,43.290813],[5.346835,43.290852],[5.346594,43.291001],[5.346485,43.291031],[5.346148,43.291236],[5.345954,43.291312],[5.345902,43.291259],[5.345649,43.2914],[5.345655,43.291526],[5.345993,43.291365]]]]}}
